CCSDS_OMM_VERS = 2.0
CREATION_DATE  = 
ORIGINATOR     = 

OBJECT_NAME    = SL-14 R/B
OBJECT_ID      = 1986-046B
CENTER_NAME    = EARTH
REF_FRAME      = TEME
TIME_SYSTEM    = UTC
MEAN_ELEMENT_THEORY = SGP/SGP4

EPOCH          = 2025-12-04T15:09:06.086880
MEAN_MOTION    = 14.85471538
ECCENTRICITY   = .002311
INCLINATION    = 82.4812
RA_OF_ASC_NODE = 169.9718
ARG_OF_PERICENTER = 178.6289
MEAN_ANOMALY   = 181.4995

EPHEMERIS_TYPE = 0
CLASSIFICATION_TYPE = U
NORAD_CAT_ID   = 16792
ELEMENT_SET_NO = 999
REV_AT_EPOCH   = 11229
BSTAR          = .10287E-3
MEAN_MOTION_DOT = .915E-5
MEAN_MOTION_DDOT = 0

CCSDS_OMM_VERS = 2.0
CREATION_DATE  = 
ORIGINATOR     = 

OBJECT_NAME    = SL-14 R/B
OBJECT_ID      = 1986-055B
CENTER_NAME    = EARTH
REF_FRAME      = TEME
TIME_SYSTEM    = UTC
MEAN_ELEMENT_THEORY = SGP/SGP4

EPOCH          = 2025-12-04T16:41:55.943232
MEAN_MOTION    = 14.85519130
ECCENTRICITY   = .0017556
INCLINATION    = 82.5212
RA_OF_ASC_NODE = 215.9307
ARG_OF_PERICENTER = 288.3491
MEAN_ANOMALY   = 125.4488

EPHEMERIS_TYPE = 0
CLASSIFICATION_TYPE = U
NORAD_CAT_ID   = 16882
ELEMENT_SET_NO = 999
REV_AT_EPOCH   = 10526
BSTAR          = .10688E-3
MEAN_MOTION_DOT = .949E-5
MEAN_MOTION_DDOT = 0

CCSDS_OMM_VERS = 2.0
CREATION_DATE  = 
ORIGINATOR     = 

OBJECT_NAME    = AJISAI (EGS)
OBJECT_ID      = 1986-061A
CENTER_NAME    = EARTH
REF_FRAME      = TEME
TIME_SYSTEM    = UTC
MEAN_ELEMENT_THEORY = SGP/SGP4

EPOCH          = 2025-12-04T17:16:00.079968
MEAN_MOTION    = 12.44514133
ECCENTRICITY   = .0011268
INCLINATION    = 50.0113
RA_OF_ASC_NODE = 25.3788
ARG_OF_PERICENTER = 45.7966
MEAN_ANOMALY   = 55.4006

EPHEMERIS_TYPE = 0
CLASSIFICATION_TYPE = U
NORAD_CAT_ID   = 16908
ELEMENT_SET_NO = 999
REV_AT_EPOCH   = 45617
BSTAR          = .24022E-4
MEAN_MOTION_DOT = -.94E-6
MEAN_MOTION_DDOT = 0

CCSDS_OMM_VERS = 2.0
CREATION_DATE  = 
ORIGINATOR     = 

OBJECT_NAME    = COSMOS 1812
OBJECT_ID      = 1987-003A
CENTER_NAME    = EARTH
REF_FRAME      = TEME
TIME_SYSTEM    = UTC
MEAN_ELEMENT_THEORY = SGP/SGP4

EPOCH          = 2025-12-04T08:10:57.133056
MEAN_MOTION    = 15.73451221
ECCENTRICITY   = .000718
INCLINATION    = 82.4869
RA_OF_ASC_NODE = 301.0944
ARG_OF_PERICENTER = 97.6918
MEAN_ANOMALY   = 262.5161

EPHEMERIS_TYPE = 0
CLASSIFICATION_TYPE = U
NORAD_CAT_ID   = 17295
ELEMENT_SET_NO = 999
REV_AT_EPOCH   = 12933
BSTAR          = .1102E-2
MEAN_MOTION_DOT = .155517E-2
MEAN_MOTION_DDOT = 0

CCSDS_OMM_VERS = 2.0
CREATION_DATE  = 
ORIGINATOR     = 

OBJECT_NAME    = SL-14 R/B
OBJECT_ID      = 1987-024B
CENTER_NAME    = EARTH
REF_FRAME      = TEME
TIME_SYSTEM    = UTC
MEAN_ELEMENT_THEORY = SGP/SGP4

EPOCH          = 2025-12-04T15:09:52.197696
MEAN_MOTION    = 14.86011645
ECCENTRICITY   = .0017411
INCLINATION    = 82.5280
RA_OF_ASC_NODE = 182.0709
ARG_OF_PERICENTER = 211.8797
MEAN_ANOMALY   = 148.1367

EPHEMERIS_TYPE = 0
CLASSIFICATION_TYPE = U
NORAD_CAT_ID   = 17567
ELEMENT_SET_NO = 999
REV_AT_EPOCH   = 7401
BSTAR          = .97239E-4
MEAN_MOTION_DOT = .876E-5
MEAN_MOTION_DDOT = 0

CCSDS_OMM_VERS = 2.0
CREATION_DATE  = 
ORIGINATOR     = 

OBJECT_NAME    = COSMOS 1833
OBJECT_ID      = 1987-027A
CENTER_NAME    = EARTH
REF_FRAME      = TEME
TIME_SYSTEM    = UTC
MEAN_ELEMENT_THEORY = SGP/SGP4

EPOCH          = 2025-12-04T15:32:31.554816
MEAN_MOTION    = 14.13018893
ECCENTRICITY   = .0022187
INCLINATION    = 70.9130
RA_OF_ASC_NODE = 165.7887
ARG_OF_PERICENTER = 343.0949
MEAN_ANOMALY   = 16.9430

EPHEMERIS_TYPE = 0
CLASSIFICATION_TYPE = U
NORAD_CAT_ID   = 17589
ELEMENT_SET_NO = 999
REV_AT_EPOCH   = 99688
BSTAR          = .62167E-4
MEAN_MOTION_DOT = .68E-6
MEAN_MOTION_DDOT = 0

CCSDS_OMM_VERS = 2.0
CREATION_DATE  = 
ORIGINATOR     = 

OBJECT_NAME    = SL-16 R/B
OBJECT_ID      = 1987-027B
CENTER_NAME    = EARTH
REF_FRAME      = TEME
TIME_SYSTEM    = UTC
MEAN_ELEMENT_THEORY = SGP/SGP4

EPOCH          = 2025-12-04T16:26:38.003712
MEAN_MOTION    = 14.17152571
ECCENTRICITY   = .0007521
INCLINATION    = 71.0023
RA_OF_ASC_NODE = 116.6899
ARG_OF_PERICENTER = 268.2002
MEAN_ANOMALY   = 91.8260

EPHEMERIS_TYPE = 0
CLASSIFICATION_TYPE = U
NORAD_CAT_ID   = 17590
ELEMENT_SET_NO = 999
REV_AT_EPOCH   = 188
BSTAR          = .99861E-5
MEAN_MOTION_DOT = -.28E-6
MEAN_MOTION_DDOT = 0

CCSDS_OMM_VERS = 2.0
CREATION_DATE  = 
ORIGINATOR     = 

OBJECT_NAME    = SL-14 R/B
OBJECT_ID      = 1987-038B
CENTER_NAME    = EARTH
REF_FRAME      = TEME
TIME_SYSTEM    = UTC
MEAN_ELEMENT_THEORY = SGP/SGP4

EPOCH          = 2025-12-04T13:52:19.769376
MEAN_MOTION    = 14.85250122
ECCENTRICITY   = .002066
INCLINATION    = 82.5024
RA_OF_ASC_NODE = 26.3881
ARG_OF_PERICENTER = 117.1545
MEAN_ANOMALY   = 243.1781

EPHEMERIS_TYPE = 0
CLASSIFICATION_TYPE = U
NORAD_CAT_ID   = 17912
ELEMENT_SET_NO = 999
REV_AT_EPOCH   = 6511
BSTAR          = .987E-4
MEAN_MOTION_DOT = .874E-5
MEAN_MOTION_DDOT = 0

CCSDS_OMM_VERS = 2.0
CREATION_DATE  = 
ORIGINATOR     = 

OBJECT_NAME    = COSMOS 1844
OBJECT_ID      = 1987-041A
CENTER_NAME    = EARTH
REF_FRAME      = TEME
TIME_SYSTEM    = UTC
MEAN_ELEMENT_THEORY = SGP/SGP4

EPOCH          = 2025-12-04T03:31:22.291392
MEAN_MOTION    = 14.14527660
ECCENTRICITY   = .00303661
INCLINATION    = 70.8988
RA_OF_ASC_NODE = 235.6948
ARG_OF_PERICENTER = 170.8103
MEAN_ANOMALY   = 189.3581

EPHEMERIS_TYPE = 0
CLASSIFICATION_TYPE = U
NORAD_CAT_ID   = 17973
ELEMENT_SET_NO = 999
REV_AT_EPOCH   = 99007
BSTAR          = -.30876809E-4
MEAN_MOTION_DOT = -.108E-5
MEAN_MOTION_DDOT = 0

CCSDS_OMM_VERS = 2.0
CREATION_DATE  = 
ORIGINATOR     = 

OBJECT_NAME    = SL-14 R/B
OBJECT_ID      = 1987-055B
CENTER_NAME    = EARTH
REF_FRAME      = TEME
TIME_SYSTEM    = UTC
MEAN_ELEMENT_THEORY = SGP/SGP4

EPOCH          = 2025-12-04T15:19:41.871648
MEAN_MOTION    = 14.85508281
ECCENTRICITY   = .0019934
INCLINATION    = 82.5000
RA_OF_ASC_NODE = 78.6225
ARG_OF_PERICENTER = 331.5025
MEAN_ANOMALY   = 28.5099

EPHEMERIS_TYPE = 0
CLASSIFICATION_TYPE = U
NORAD_CAT_ID   = 18153
ELEMENT_SET_NO = 999
REV_AT_EPOCH   = 5582
BSTAR          = .11325E-3
MEAN_MOTION_DOT = .1004E-4
MEAN_MOTION_DDOT = 0

CCSDS_OMM_VERS = 2.0
CREATION_DATE  = 
ORIGINATOR     = 

OBJECT_NAME    = COSMOS 1867
OBJECT_ID      = 1987-060A
CENTER_NAME    = EARTH
REF_FRAME      = TEME
TIME_SYSTEM    = UTC
MEAN_ELEMENT_THEORY = SGP/SGP4

EPOCH          = 2025-12-04T17:00:06.781248
MEAN_MOTION    = 14.31484183
ECCENTRICITY   = .0013627
INCLINATION    = 65.0097
RA_OF_ASC_NODE = 212.6935
ARG_OF_PERICENTER = 270.3015
MEAN_ANOMALY   = 89.6508

EPHEMERIS_TYPE = 0
CLASSIFICATION_TYPE = U
NORAD_CAT_ID   = 18187
ELEMENT_SET_NO = 999
REV_AT_EPOCH   = 634
BSTAR          = .55783E-4
MEAN_MOTION_DOT = .48E-6
MEAN_MOTION_DDOT = 0

CCSDS_OMM_VERS = 2.0
CREATION_DATE  = 
ORIGINATOR     = 

OBJECT_NAME    = SL-14 R/B
OBJECT_ID      = 1988-001B
CENTER_NAME    = EARTH
REF_FRAME      = TEME
TIME_SYSTEM    = UTC
MEAN_ELEMENT_THEORY = SGP/SGP4

EPOCH          = 2025-12-04T13:26:53.657664
MEAN_MOTION    = 14.85410398
ECCENTRICITY   = .0017729
INCLINATION    = 82.5126
RA_OF_ASC_NODE = 284.8408
ARG_OF_PERICENTER = 188.0275
MEAN_ANOMALY   = 172.0660

EPHEMERIS_TYPE = 0
CLASSIFICATION_TYPE = U
NORAD_CAT_ID   = 18749
ELEMENT_SET_NO = 999
REV_AT_EPOCH   = 2790
BSTAR          = .1105E-3
MEAN_MOTION_DOT = .978E-5
MEAN_MOTION_DDOT = 0

