SL-14 R/B               
1 16792U 86046B   25338.63132045  .00000915  00000+0  10287-3 0  9999
2 16792  82.4812 169.9718 0023110 178.6289 181.4995 14.85471538112299
SL-14 R/B               
1 16882U 86055B   25338.69578638  .00000949  00000+0  10688-3 0  9999
2 16882  82.5212 215.9307 0017556 288.3491 125.4488 14.85519130105266
AJISAI (EGS)            
1 16908U 86061A   25338.71944537 -.00000094  00000+0  24022-4 0  9993
2 16908  50.0113  25.3788 0011268  45.7966  55.4006 12.44514133456175
COSMOS 1812             
1 17295U 87003A   25338.34093904  .00155517  00000+0  11020-2 0  9994
2 17295  82.4869 301.0944 0007180  97.6918 262.5161 15.73451221129332
SL-14 R/B               
1 17567U 87024B   25338.63185414  .00000876  00000+0  97239-4 0  9994
2 17567  82.5280 182.0709 0017411 211.8797 148.1367 14.86011645 74017
COSMOS 1833             
1 17589U 87027A   25338.64758744  .00000068  00000+0  62167-4 0  9999
2 17589  70.9130 165.7887 0022187 343.0949  16.9430 14.13018893996887
SL-16 R/B               
1 17590U 87027B   25338.68516208 -.00000028  00000+0  99861-5 0  9991
2 17590  71.0023 116.6899 0007521 268.2002  91.8260 14.17152571  1889
SL-14 R/B               
1 17912U 87038B   25338.57800659  .00000874  00000+0  98700-4 0  9993
2 17912  82.5024  26.3881 0020660 117.1545 243.1781 14.85250122 65118
COSMOS 1844             
1 17973U 87041A   25338.14678578 -.00000108  00000+0 -30877-4 0  9993
2 17973  70.8988 235.6948 0030366 170.8103 189.3581 14.14527660990070
SL-14 R/B               
1 18153U 87055B   25338.63867907  .00001004  00000+0  11325-3 0  9999
2 18153  82.5000  78.6225 0019934 331.5025  28.5099 14.85508281 55825
COSMOS 1867             
1 18187U 87060A   25338.70841182  .00000048  00000+0  55783-4 0  9991
2 18187  65.0097 212.6935 0013627 270.3015  89.6508 14.31484183  6345
SL-14 R/B               
1 18749U 88001B   25338.56034326  .00000978  00000+0  11050-3 0  9999
2 18749  82.5126 284.8408 0017729 188.0275 172.0660 14.85410398 27909
